[{"OBJECT_NAME":"JILIN-1 GAOFEN 03D15","OBJECT_ID":"2022-019R","EPOCH":"2026-03-09T23:58:07.561632","MEAN_MOTION":15.6920844,"ECCENTRICITY":0.00039863,"INCLINATION":97.369,"RA_OF_ASC_NODE":160.232,"ARG_OF_PERICENTER":172.8619,"MEAN_ANOMALY":187.27,"EPHEMERIS_TYPE":0,"CLASSIFICATION_TYPE":"U","NORAD_CAT_ID":51839,"ELEMENT_SET_NO":999,"REV_AT_EPOCH":22441,"BSTAR":0.0010884373,"MEAN_MOTION_DOT":0.00128061,"MEAN_MOTION_DDOT":0},{"OBJECT_NAME":"STARLINK-11094 [DTC]","OBJECT_ID":"2024-088G","EPOCH":"2026-03-09T21:24:00.146304","MEAN_MOTION":15.69706371,"ECCENTRICITY":0.00011143,"INCLINATION":53.1569,"RA_OF_ASC_NODE":325.3012,"ARG_OF_PERICENTER":125.4369,"MEAN_ANOMALY":234.6753,"EPHEMERIS_TYPE":0,"CLASSIFICATION_TYPE":"U","NORAD_CAT_ID":59714,"ELEMENT_SET_NO":999,"REV_AT_EPOCH":10630,"BSTAR":4.3009652e-5,"MEAN_MOTION_DOT":4.624e-5,"MEAN_MOTION_DDOT":0}]
